IRIDIUM 159             
1 43578U 18061K   24229.35867301  .00000414  00000+0  14077-3 0  9995
2 43578  86.4014 336.6379 0002256  95.4593 264.6860 14.34216788317376
IRIDIUM 180             
1 43922U 19002A   24229.21863700  .00001018  00000+0  35650-3 0  9999
2 43922  86.3927 273.5619 0002488  95.5040 264.6439 14.34208800292967
IRIDIUM 176             
1 43923U 19002B   24229.54111861  .00003143  00000+0  49411-3 0  9991
2 43923  86.6060 273.4439 0002395 100.7517 259.3970 14.72279549300728
IRIDIUM 168             
1 43924U 19002C   24229.21229707  .00000680  00000+0  23561-3 0  9996
2 43924  86.3928 273.6226 0002374  95.1225 265.0241 14.34212977292944
IRIDIUM 173             
1 43925U 19002D   24229.19960885  .00000546  00000+0  18808-3 0  9992
2 43925  86.3915 273.5439 0002484  93.5321 266.6158 14.34212485292923
IRIDIUM 169             
1 43926U 19002E   24229.29100186  .00001542  00000+0  49756-3 0  9997
2 43926  86.4231 305.1461 0003759  65.7387 294.4204 14.38608082293919
IRIDIUM 172             
1 43927U 19002F   24229.19326603  .00000568  00000+0  19563-3 0  9991
2 43927  86.3922 273.5529 0002255  92.6115 267.5338 14.34210907292938
IRIDIUM 175             
1 43928U 19002G   24229.39974643  .00001393  00000+0  21698-3 0  9996
2 43928  86.1472 243.2399 0002475  87.1463 273.0037 14.72230821300695
